[{"OBJECT_NAME":"STARLINK-32285","OBJECT_ID":"2024-138A","EPOCH":"2026-01-17T18:03:55.874592","MEAN_MOTION":15.30191977,"ECCENTRICITY":0.00011788,"INCLINATION":53.1602,"RA_OF_ASC_NODE":185.8676,"ARG_OF_PERICENTER":84.2149,"MEAN_ANOMALY":275.8986,"EPHEMERIS_TYPE":0,"CLASSIFICATION_TYPE":"U","NORAD_CAT_ID":60355,"ELEMENT_SET_NO":999,"REV_AT_EPOCH":8283,"BSTAR":2.8890392e-5,"MEAN_MOTION_DOT":4.96e-6,"MEAN_MOTION_DDOT":0},{"OBJECT_NAME":"STARLINK-32278","OBJECT_ID":"2024-138B","EPOCH":"2026-01-17T21:07:38.275104","MEAN_MOTION":15.3019254,"ECCENTRICITY":0.00012352,"INCLINATION":53.1612,"RA_OF_ASC_NODE":185.9412,"ARG_OF_PERICENTER":93.5162,"MEAN_ANOMALY":266.598,"EPHEMERIS_TYPE":0,"CLASSIFICATION_TYPE":"U","NORAD_CAT_ID":60356,"ELEMENT_SET_NO":999,"REV_AT_EPOCH":8284,"BSTAR":1.570963e-6,"MEAN_MOTION_DOT":-3.13e-6,"MEAN_MOTION_DDOT":0},{"OBJECT_NAME":"STARLINK-32287","OBJECT_ID":"2024-138D","EPOCH":"2026-01-17T21:03:05.983776","MEAN_MOTION":15.30150657,"ECCENTRICITY":0.00014487,"INCLINATION":53.1629,"RA_OF_ASC_NODE":185.9319,"ARG_OF_PERICENTER":97.633,"MEAN_ANOMALY":262.4835,"EPHEMERIS_TYPE":0,"CLASSIFICATION_TYPE":"U","NORAD_CAT_ID":60358,"ELEMENT_SET_NO":999,"REV_AT_EPOCH":8284,"BSTAR":0.00033640056,"MEAN_MOTION_DOT":9.602e-5,"MEAN_MOTION_DDOT":0},{"OBJECT_NAME":"STARLINK-32290","OBJECT_ID":"2024-138E","EPOCH":"2026-01-17T17:58:00.828480","MEAN_MOTION":15.30196616,"ECCENTRICITY":0.00013149,"INCLINATION":53.1619,"RA_OF_ASC_NODE":186.5517,"ARG_OF_PERICENTER":85.844,"MEAN_ANOMALY":274.2711,"EPHEMERIS_TYPE":0,"CLASSIFICATION_TYPE":"U","NORAD_CAT_ID":60359,"ELEMENT_SET_NO":999,"REV_AT_EPOCH":6385,"BSTAR":1.7654402e-5,"MEAN_MOTION_DOT":1.64e-6,"MEAN_MOTION_DDOT":0},{"OBJECT_NAME":"STARLINK-32275","OBJECT_ID":"2024-138F","EPOCH":"2026-01-17T17:15:27.795744","MEAN_MOTION":15.30190483,"ECCENTRICITY":0.000119,"INCLINATION":53.1594,"RA_OF_ASC_NODE":186.364,"ARG_OF_PERICENTER":99.2087,"MEAN_ANOMALY":260.9049,"EPHEMERIS_TYPE":0,"CLASSIFICATION_TYPE":"U","NORAD_CAT_ID":60360,"ELEMENT_SET_NO":999,"REV_AT_EPOCH":8282,"BSTAR":-6.969858e-6,"MEAN_MOTION_DOT":-5.65e-6,"MEAN_MOTION_DDOT":0},{"OBJECT_NAME":"STARLINK-32227","OBJECT_ID":"2024-138G","EPOCH":"2026-01-17T17:48:54.021024","MEAN_MOTION":15.30180698,"ECCENTRICITY":0.0001355,"INCLINATION":53.1614,"RA_OF_ASC_NODE":186.4996,"ARG_OF_PERICENTER":87.338,"MEAN_ANOMALY":272.7776,"EPHEMERIS_TYPE":0,"CLASSIFICATION_TYPE":"U","NORAD_CAT_ID":60361,"ELEMENT_SET_NO":999,"REV_AT_EPOCH":8283,"BSTAR":0.00017946343,"MEAN_MOTION_DOT":4.956e-5,"MEAN_MOTION_DDOT":0},{"OBJECT_NAME":"STARLINK-32256","OBJECT_ID":"2024-138H","EPOCH":"2026-01-17T21:04:35.774976","MEAN_MOTION":15.30196041,"ECCENTRICITY":0.00010925,"INCLINATION":53.161,"RA_OF_ASC_NODE":185.9264,"ARG_OF_PERICENTER":82.7132,"MEAN_ANOMALY":277.3993,"EPHEMERIS_TYPE":0,"CLASSIFICATION_TYPE":"U","NORAD_CAT_ID":60362,"ELEMENT_SET_NO":999,"REV_AT_EPOCH":8283,"BSTAR":3.4275573e-5,"MEAN_MOTION_DOT":6.56e-6,"MEAN_MOTION_DDOT":0},{"OBJECT_NAME":"STARLINK-32267","OBJECT_ID":"2024-138J","EPOCH":"2026-01-17T17:41:15.617184","MEAN_MOTION":15.30222136,"ECCENTRICITY":0.00013069,"INCLINATION":53.1609,"RA_OF_ASC_NODE":186.4772,"ARG_OF_PERICENTER":89.5972,"MEAN_ANOMALY":270.5179,"EPHEMERIS_TYPE":0,"CLASSIFICATION_TYPE":"U","NORAD_CAT_ID":60363,"ELEMENT_SET_NO":999,"REV_AT_EPOCH":8282,"BSTAR":0.00016897363,"MEAN_MOTION_DOT":4.652e-5,"MEAN_MOTION_DDOT":0},{"OBJECT_NAME":"STARLINK-32270","OBJECT_ID":"2024-138K","EPOCH":"2026-01-17T20:37:14.695968","MEAN_MOTION":15.30193834,"ECCENTRICITY":0.00012636,"INCLINATION":53.1602,"RA_OF_ASC_NODE":185.8199,"ARG_OF_PERICENTER":84.499,"MEAN_ANOMALY":275.6155,"EPHEMERIS_TYPE":0,"CLASSIFICATION_TYPE":"U","NORAD_CAT_ID":60364,"ELEMENT_SET_NO":999,"REV_AT_EPOCH":8274,"BSTAR":2.4146592e-5,"MEAN_MOTION_DOT":3.56e-6,"MEAN_MOTION_DDOT":0},{"OBJECT_NAME":"STARLINK-32188","OBJECT_ID":"2024-138L","EPOCH":"2026-01-17T20:28:07.908384","MEAN_MOTION":15.30189166,"ECCENTRICITY":0.00012633,"INCLINATION":53.1598,"RA_OF_ASC_NODE":185.778,"ARG_OF_PERICENTER":92.0078,"MEAN_ANOMALY":268.1068,"EPHEMERIS_TYPE":0,"CLASSIFICATION_TYPE":"U","NORAD_CAT_ID":60365,"ELEMENT_SET_NO":999,"REV_AT_EPOCH":8284,"BSTAR":5.319496e-6,"MEAN_MOTION_DOT":-2.02e-6,"MEAN_MOTION_DDOT":0},{"OBJECT_NAME":"STARLINK-32230","OBJECT_ID":"2024-138M","EPOCH":"2026-01-17T17:38:15.404064","MEAN_MOTION":15.30192028,"ECCENTRICITY":0.00012003,"INCLINATION":53.1608,"RA_OF_ASC_NODE":186.4642,"ARG_OF_PERICENTER":84.4412,"MEAN_ANOMALY":275.6726,"EPHEMERIS_TYPE":0,"CLASSIFICATION_TYPE":"U","NORAD_CAT_ID":60366,"ELEMENT_SET_NO":999,"REV_AT_EPOCH":8282,"BSTAR":1.7598124e-5,"MEAN_MOTION_DOT":1.62e-6,"MEAN_MOTION_DDOT":0},{"OBJECT_NAME":"STARLINK-32243","OBJECT_ID":"2024-138N","EPOCH":"2026-01-17T20:31:10.165728","MEAN_MOTION":15.30189327,"ECCENTRICITY":0.00012174,"INCLINATION":53.1603,"RA_OF_ASC_NODE":185.7881,"ARG_OF_PERICENTER":93.2195,"MEAN_ANOMALY":266.8945,"EPHEMERIS_TYPE":0,"CLASSIFICATION_TYPE":"U","NORAD_CAT_ID":60367,"ELEMENT_SET_NO":999,"REV_AT_EPOCH":8284,"BSTAR":-9.004639e-6,"MEAN_MOTION_DOT":-6.26e-6,"MEAN_MOTION_DDOT":0},{"OBJECT_NAME":"STARLINK-32271","OBJECT_ID":"2024-138P","EPOCH":"2026-01-17T21:00:02.550528","MEAN_MOTION":15.30195949,"ECCENTRICITY":0.00011062,"INCLINATION":53.1613,"RA_OF_ASC_NODE":185.9175,"ARG_OF_PERICENTER":88.8922,"MEAN_ANOMALY":271.2205,"EPHEMERIS_TYPE":0,"CLASSIFICATION_TYPE":"U","NORAD_CAT_ID":60368,"ELEMENT_SET_NO":999,"REV_AT_EPOCH":8284,"BSTAR":2.0824866e-5,"MEAN_MOTION_DOT":2.58e-6,"MEAN_MOTION_DDOT":0},{"OBJECT_NAME":"STARLINK-32266","OBJECT_ID":"2024-138Q","EPOCH":"2026-01-18T00:00:02.000160","MEAN_MOTION":15.66106644,"ECCENTRICITY":0.00096166,"INCLINATION":53.1368,"RA_OF_ASC_NODE":164.7072,"ARG_OF_PERICENTER":278.6288,"MEAN_ANOMALY":260.8467,"EPHEMERIS_TYPE":0,"CLASSIFICATION_TYPE":"U","NORAD_CAT_ID":60369,"ELEMENT_SET_NO":999,"REV_AT_EPOCH":582,"BSTAR":0.0044762117,"MEAN_MOTION_DOT":0.00497632,"MEAN_MOTION_DDOT":0},{"OBJECT_NAME":"STARLINK-32220","OBJECT_ID":"2024-138R","EPOCH":"2026-01-17T17:32:10.698432","MEAN_MOTION":15.30193944,"ECCENTRICITY":0.0001247,"INCLINATION":53.1601,"RA_OF_ASC_NODE":186.4346,"ARG_OF_PERICENTER":89.9205,"MEAN_ANOMALY":270.1939,"EPHEMERIS_TYPE":0,"CLASSIFICATION_TYPE":"U","NORAD_CAT_ID":60370,"ELEMENT_SET_NO":999,"REV_AT_EPOCH":8282,"BSTAR":1.4846371e-5,"MEAN_MOTION_DOT":8.0e-7,"MEAN_MOTION_DDOT":0},{"OBJECT_NAME":"STARLINK-32263","OBJECT_ID":"2024-138S","EPOCH":"2026-01-17T18:08:29.421312","MEAN_MOTION":15.3019278,"ECCENTRICITY":9.999e-5,"INCLINATION":53.1594,"RA_OF_ASC_NODE":185.8853,"ARG_OF_PERICENTER":83.8108,"MEAN_ANOMALY":276.3007,"EPHEMERIS_TYPE":0,"CLASSIFICATION_TYPE":"U","NORAD_CAT_ID":60371,"ELEMENT_SET_NO":999,"REV_AT_EPOCH":8273,"BSTAR":-1.57101e-6,"MEAN_MOTION_DOT":-4.05e-6,"MEAN_MOTION_DDOT":0}]
