STARLINK-32285          
1 60355U 24138A   26017.75273003  .00000496  00000+0  28890-4 0  9999
2 60355  53.1602 185.8676 0001178  84.2149 275.8986 15.30191977 82833
STARLINK-32278          
1 60356U 24138B   26017.88030411 -.00000313  00000+0  15710-5 0  9995
2 60356  53.1612 185.9412 0001235  93.5162 266.5980 15.30192540 82845
STARLINK-32287          
1 60358U 24138D   26017.87715259  .00009602  00000+0  33640-3 0  9995
2 60358  53.1629 185.9319 0001448  97.6330 262.4835 15.30150657 82846
STARLINK-32290          
1 60359U 24138E   26017.74862070  .00000164  00000+0  17654-4 0  9998
2 60359  53.1619 186.5517 0001314  85.8440 274.2711 15.30196616 63855
STARLINK-32275          
1 60360U 24138F   26017.71907171 -.00000565  00000+0 -69699-5 0  9993
2 60360  53.1594 186.3640 0001190  99.2087 260.9049 15.30190483 82822
STARLINK-32227          
1 60361U 24138G   26017.74229191  .00004956  00000+0  17946-3 0  9998
2 60361  53.1614 186.4996 0001355  87.3380 272.7776 15.30180698 82834
STARLINK-32256          
1 60362U 24138H   26017.87819184  .00000656  00000+0  34276-4 0  9999
2 60362  53.1610 185.9264 0001092  82.7132 277.3993 15.30196041 82836
STARLINK-32267          
1 60363U 24138J   26017.73698631  .00004652  00000+0  16897-3 0  9995
2 60363  53.1609 186.4772 0001306  89.5972 270.5179 15.30222136 82825
STARLINK-32270          
1 60364U 24138K   26017.85919787  .00000356  00000+0  24147-4 0  9992
2 60364  53.1602 185.8199 0001263  84.4990 275.6155 15.30193834 82744
STARLINK-32188          
1 60365U 24138L   26017.85286931 -.00000202  00000+0  53195-5 0  9998
2 60365  53.1598 185.7780 0001263  92.0078 268.1068 15.30189166 82840
STARLINK-32230          
1 60366U 24138M   26017.73490051  .00000162  00000+0  17598-4 0  9996
2 60366  53.1608 186.4642 0001200  84.4412 275.6726 15.30192028 82829
STARLINK-32243          
1 60367U 24138N   26017.85497877 -.00000626  00000+0 -90046-5 0  9990
2 60367  53.1603 185.7881 0001217  93.2195 266.8945 15.30189327 82841
STARLINK-32271          
1 60368U 24138P   26017.87502952  .00000258  00000+0  20825-4 0  9990
2 60368  53.1613 185.9175 0001106  88.8922 271.2205 15.30195949 82842
STARLINK-32266          
1 60369U 24138Q   26018.00002315  .00497632  00000+0  44762-2 0  9995
2 60369  53.1368 164.7072 0009616 278.6288 260.8467 15.66106644  5829
STARLINK-32220          
1 60370U 24138R   26017.73067938  .00000080  00000+0  14846-4 0  9997
2 60370  53.1601 186.4346 0001247  89.9205 270.1939 15.30193944 82823
STARLINK-32263          
1 60371U 24138S   26017.75589608 -.00000405  00000+0 -15710-5 0  9998
2 60371  53.1594 185.8853 0000999  83.8108 276.3007 15.30192780 82730
